0 OPS 4682 DEB
1 38424U 65027ED  13284.15013589 -.00000341  00000-0 -11411-2 0   789
2 38424 090.2813 245.3997 0018195 186.7790 173.3089 13.00978083601228
0 OPS 4682 DEB
1 38424U 65027ED  13288.30322673  .00000250  00000-0  79440-3 0   792
2 38424 090.2793 245.5054 0018665 174.8968 185.2348 13.00969477601764
0 OPS 4682 DEB
1 38424U 65027ED  13289.30304523  .00000463  00000-0  14922-2 0   808
2 38424 090.2778 245.5283 0018979 171.6863 188.4578 13.00970355601899
0 OPS 4682 DEB
1 38424U 65027ED  13292.30250173  .00001005  00000-0  32679-2 0   816
2 38424 090.2773 245.6028 0019303 165.5164 194.6516 13.00970811602282
0 OPS 4682 DEB
1 38424U 65027ED  13294.84050615  .00001372  00000-0  44687-2 0   826
2 38424 090.2735 245.6643 0019245 157.5138 202.6833 13.00974410602618
